{"type": "FeatureCollection", "features": [ {"type": "Feature", "properties": {"norad_id": 43010, "name": "FENGYUN 3D", "group": "weather", "lat": -45.52123258592173, "lon": -43.33581542326997, "alt_km": 833.3254061206944, "timestamp": "2025-12-07T03:52:32.112500+00:00", "meta": {"OBJECT_NAME": "FENGYUN 3D", "OBJECT_ID": "2017-072A", "EPOCH": "2025-12-06T14:33:40.849920", "MEAN_MOTION": 14.19681187, "ECCENTRICITY": 7.275e-05, "INCLINATION": 98.9886, "RA_OF_ASC_NODE": 306.8254, "ARG_OF_PERICENTER": 202.5017, "MEAN_ANOMALY": 157.6127, "EPHEMERIS_TYPE": 0, "CLASSIFICATION_TYPE": "U", "NORAD_CAT_ID": 43010, "ELEMENT_SET_NO": 999, "REV_AT_EPOCH": 41766, "BSTAR": 0.00012580883, "MEAN_MOTION_DOT": 2.2e-06, "MEAN_MOTION_DDOT": 0}, "tle": {"line1": "1 43010U 17072A   25340.60672280  .00000220  00000+0  12581-3 0  9993", "line2": "2 43010  98.9886 306.8254 0000727 202.5017 157.6127 14.19681187417668"}}, "geometry": {"type": "Point", "coordinates": [-43.33581542326997, -45.52123258592173]}}, {"type": "Feature", "properties": {"norad_id": 43013, "name": "NOAA 20 (JPSS-1)", "group": "weather", "lat": 68.70265314137644, "lon": 120.81590193113013, "alt_km": 818.7940606587854, "timestamp": "2025-12-07T03:52:32.112511+00:00", "meta": {"OBJECT_NAME": "NOAA 20 (JPSS-1)", "OBJECT_ID": "2017-073A", "EPOCH": "2025-12-06T13:49:43.261824", "MEAN_MOTION": 14.19523173, "ECCENTRICITY": 0.00021046, "INCLINATION": 98.759, "RA_OF_ASC_NODE": 276.9407, "ARG_OF_PERICENTER": 96.0107, "MEAN_ANOMALY": 264.1309, "EPHEMERIS_TYPE": 0, "CLASSIFICATION_TYPE": "U", "NORAD_CAT_ID": 43013, "ELEMENT_SET_NO": 999, "REV_AT_EPOCH": 41714, "BSTAR": 0.00011357534, "MEAN_MOTION_DOT": 1.95e-06, "MEAN_MOTION_DDOT": 0}, "tle": {"line1": "1 43013U 17073A   25340.57619516  .00000195  00000+0  11358-3 0  9998", "line2": "2 43013  98.7590 276.9407 0002104  96.0107 264.1309 14.19523173417144"}}, "geometry": {"type": "Point", "coordinates": [120.81590193113013, 68.70265314137644]}}, {"type": "Feature", "properties": {"norad_id": 43226, "name": "GOES 17", "group": "weather", "lat": -0.2869711025506326, "lon": 44.84649690717219, "alt_km": 35796.379922931985, "timestamp": "2025-12-07T03:52:32.112524+00:00", "meta": {"OBJECT_NAME": "GOES 17", "OBJECT_ID": "2018-022A", "EPOCH": "2025-12-06T11:01:48.078336", "MEAN_MOTION": 1.00270924, "ECCENTRICITY": 0.00035204, "INCLINATION": 0.4428, "RA_OF_ASC_NODE": 89.2402, "ARG_OF_PERICENTER": 183.7005, "MEAN_ANOMALY": 238.5103, "EPHEMERIS_TYPE": 0, "CLASSIFICATION_TYPE": "U", "NORAD_CAT_ID": 43226, "ELEMENT_SET_NO": 999, "REV_AT_EPOCH": 2849, "BSTAR": 0, "MEAN_MOTION_DOT": -1.75e-06, "MEAN_MOTION_DDOT": 0}, "tle": {"line1": "1 43226U 18022A   25340.45958424 -.00000175  00000+0  00000+0 0  9997", "line2": "2 43226   0.4428  89.2402 0003520 183.7005 238.5103  1.00270924 28496"}}, "geometry": {"type": "Point", "coordinates": [44.84649690717219, -0.2869711025506326]}}, {"type": "Feature", "properties": {"norad_id": 43491, "name": "FENGYUN 2H", "group": "weather", "lat": 1.8562582593080652, "lon": -146.30959239224052, "alt_km": 35775.59475356354, "timestamp": "2025-12-07T03:52:32.112537+00:00", "meta": {"OBJECT_NAME": "FENGYUN 2H", "OBJECT_ID": "2018-050A", "EPOCH": "2025-12-06T12:19:49.749600", "MEAN_MOTION": 1.00271271, "ECCENTRICITY": 0.00029244, "INCLINATION": 2.534, "RA_OF_ASC_NODE": 81.3977, "ARG_OF_PERICENTER": 164.9848, "MEAN_ANOMALY": 93.489, "EPHEMERIS_TYPE": 0, "CLASSIFICATION_TYPE": "U", "NORAD_CAT_ID": 43491, "ELEMENT_SET_NO": 999, "REV_AT_EPOCH": 2750, "BSTAR": 0, "MEAN_MOTION_DOT": -1.24e-06, "MEAN_MOTION_DDOT": 0}, "tle": {"line1": "1 43491U 18050A   25340.51377025 -.00000124  00000+0  00000+0 0  9995", "line2": "2 43491   2.5340  81.3977 0002924 164.9848  93.4890  1.00271271 27507"}}, "geometry": {"type": "Point", "coordinates": [-146.30959239224052, 1.8562582593080652]}}, {"type": "Feature", "properties": {"norad_id": 43689, "name": "METOP-C", "group": "weather", "lat": -30.594946578098707, "lon": -146.1743422535456, "alt_km": 827.2638070690937, "timestamp": "2025-12-07T03:52:32.112548+00:00", "meta": {"OBJECT_NAME": "METOP-C", "OBJECT_ID": "2018-087A", "EPOCH": "2025-12-06T15:03:41.609088", "MEAN_MOTION": 14.21508404, "ECCENTRICITY": 0.00015908, "INCLINATION": 98.6938, "RA_OF_ASC_NODE": 38.4906, "ARG_OF_PERICENTER": 52.6105, "MEAN_ANOMALY": 307.5217, "EPHEMERIS_TYPE": 0, "CLASSIFICATION_TYPE": "U", "NORAD_CAT_ID": 43689, "ELEMENT_SET_NO": 999, "REV_AT_EPOCH": 36747, "BSTAR": 0.00015448752, "MEAN_MOTION_DOT": 2.94e-06, "MEAN_MOTION_DDOT": 0}, "tle": {"line1": "1 43689U 18087A   25340.62756492  .00000294  00000+0  15449-3 0  9999", "line2": "2 43689  98.6938  38.4906 0001590  52.6105 307.5217 14.21508404367470"}}, "geometry": {"type": "Point", "coordinates": [-146.1743422535456, -30.594946578098707]}}, {"type": "Feature", "properties": {"norad_id": 43823, "name": "GEO-KOMPSAT-2A", "group": "weather", "lat": 0.0010983396104941197, "lon": -97.41200307422532, "alt_km": 35785.68210908121, "timestamp": "2025-12-07T03:52:32.112561+00:00", "meta": {"OBJECT_NAME": "GEO-KOMPSAT-2A", "OBJECT_ID": "2018-100A", "EPOCH": "2025-12-06T13:34:38.675424", "MEAN_MOTION": 1.00271737, "ECCENTRICITY": 3.127e-05, "INCLINATION": 0.0597, "RA_OF_ASC_NODE": 120.4422, "ARG_OF_PERICENTER": 74.3499, "MEAN_ANOMALY": 212.7421, "EPHEMERIS_TYPE": 0, "CLASSIFICATION_TYPE": "U", "NORAD_CAT_ID": 43823, "ELEMENT_SET_NO": 999, "REV_AT_EPOCH": 2569, "BSTAR": 0, "MEAN_MOTION_DOT": -3.37e-06, "MEAN_MOTION_DDOT": 0}, "tle": {"line1": "1 43823U 18100A   25340.56572541 -.00000337  00000+0  00000+0 0  9991", "line2": "2 43823   0.0597 120.4422 0000312  74.3499 212.7421  1.00271737 25699"}}, "geometry": {"type": "Point", "coordinates": [-97.41200307422532, 0.0010983396104941197]}}, {"type": "Feature", "properties": {"norad_id": 44387, "name": "METEOR-M2 2", "group": "weather", "lat": -48.201523147377, "lon": 130.73198020388165, "alt_km": 817.4228047543529, "timestamp": "2025-12-07T03:52:32.112572+00:00", "meta": {"OBJECT_NAME": "METEOR-M2 2", "OBJECT_ID": "2019-038A", "EPOCH": "2025-12-06T13:18:58.167360", "MEAN_MOTION": 14.24287559, "ECCENTRICITY": 0.00010504, "INCLINATION": 98.8967, "RA_OF_ASC_NODE": 320.2082, "ARG_OF_PERICENTER": 160.6758, "MEAN_ANOMALY": 199.446, "EPHEMERIS_TYPE": 0, "CLASSIFICATION_TYPE": "U", "NORAD_CAT_ID": 44387, "ELEMENT_SET_NO": 999, "REV_AT_EPOCH": 33387, "BSTAR": 0.00016216369, "MEAN_MOTION_DOT": 3.29e-06, "MEAN_MOTION_DDOT": 0}, "tle": {"line1": "1 44387U 19038A   25340.55483990  .00000329  00000+0  16216-3 0  9996", "line2": "2 44387  98.8967 320.2082 0001050 160.6758 199.4460 14.24287559333875"}}, "geometry": {"type": "Point", "coordinates": [130.73198020388165, -48.201523147377]}}, {"type": "Feature", "properties": {"norad_id": 47719, "name": "ARKTIKA-M 1", "group": "weather", "lat": 46.43038660708916, "lon": 116.88227978606893, "alt_km": 24946.634670165367, "timestamp": "2025-12-07T03:52:32.112585+00:00", "meta": {"OBJECT_NAME": "ARKTIKA-M 1", "OBJECT_ID": "2021-016A", "EPOCH": "2025-12-01T02:41:41.634816", "MEAN_MOTION": 2.00613156, "ECCENTRICITY": 0.71974708, "INCLINATION": 63.1756, "RA_OF_ASC_NODE": 85.6045, "ARG_OF_PERICENTER": 269.084, "MEAN_ANOMALY": 15.7076, "EPHEMERIS_TYPE": 0, "CLASSIFICATION_TYPE": "U", "NORAD_CAT_ID": 47719, "ELEMENT_SET_NO": 999, "REV_AT_EPOCH": 3481, "BSTAR": 0, "MEAN_MOTION_DOT": -1.2e-07, "MEAN_MOTION_DDOT": 0}, "tle": {"line1": "1 47719U 21016A   25335.11228744 -.00000012  00000+0  00000+0 0  9997", "line2": "2 47719  63.1756  85.6045 7197470 269.0840  15.7076  2.00613156 34816"}}, "geometry": {"type": "Point", "coordinates": [116.88227978606893, 46.43038660708916]}}, {"type": "Feature", "properties": {"norad_id": 49008, "name": "FENGYUN 3E", "group": "weather", "lat": -79.00089963916461, "lon": 34.13781249080662, "alt_km": 832.6795991101344, "timestamp": "2025-12-07T03:52:32.112601+00:00", "meta": {"OBJECT_NAME": "FENGYUN 3E", "OBJECT_ID": "2021-062A", "EPOCH": "2025-12-06T14:44:15.094176", "MEAN_MOTION": 14.1987879, "ECCENTRICITY": 6.299e-05, "INCLINATION": 98.7476, "RA_OF_ASC_NODE": 341.2079, "ARG_OF_PERICENTER": 305.7342, "MEAN_ANOMALY": 54.3775, "EPHEMERIS_TYPE": 0, "CLASSIFICATION_TYPE": "U", "NORAD_CAT_ID": 49008, "ELEMENT_SET_NO": 999, "REV_AT_EPOCH": 22925, "BSTAR": 5.3730712e-05, "MEAN_MOTION_DOT": 7e-07, "MEAN_MOTION_DDOT": 0}, "tle": {"line1": "1 49008U 21062A   25340.61406359  .00000070  00000+0  53731-4 0  9999", "line2": "2 49008  98.7476 341.2079 0000629 305.7342  54.3775 14.19878790229256"}}, "geometry": {"type": "Point", "coordinates": [34.13781249080662, -79.00089963916461]}}, {"type": "Feature", "properties": {"norad_id": 51850, "name": "GOES 18", "group": "weather", "lat": -0.004269616171158422, "lon": -2.676882434625439, "alt_km": 35784.115969165534, "timestamp": "2025-12-07T03:52:32.112614+00:00", "meta": {"OBJECT_NAME": "GOES 18", "OBJECT_ID": "2022-021A", "EPOCH": "2025-12-06T13:03:27.114912", "MEAN_MOTION": 1.00271985, "ECCENTRICITY": 9.042e-05, "INCLINATION": 0.0132, "RA_OF_ASC_NODE": 146.447, "ARG_OF_PERICENTER": 150.136, "MEAN_ANOMALY": 197.86, "EPHEMERIS_TYPE": 0, "CLASSIFICATION_TYPE": "U", "NORAD_CAT_ID": 51850, "ELEMENT_SET_NO": 999, "REV_AT_EPOCH": 466, "BSTAR": 0, "MEAN_MOTION_DOT": 1.04e-06, "MEAN_MOTION_DDOT": 0}, "tle": {"line1": "1 51850U 22021A   25340.54406383  .00000104  00000+0  00000+0 0  9996", "line2": "2 51850   0.0132 146.4470 0000904 150.1360 197.8600  1.00271985  4662"}}, "geometry": {"type": "Point", "coordinates": [-2.676882434625439, -0.004269616171158422]}}]}